start=new Date('2023-02-25T00:00:00.000Z').valueOf();
sats=[{"DECAY_DATE":null,"CLASSIFICATION_TYPE":"U","NORAD_CAT_ID":"48556","MEAN_ELEMENT_THEORY":"SGP4","RCS_SIZE":"LARGE","APOAPSIS":"548.289","REV_AT_EPOCH":"9792","EPHEMERIS_TYPE":"0","MEAN_MOTION_DOT":"0.00017443","MEAN_MOTION":"15.06396037","PERIAPSIS":"546.163","INCLINATION":"53.0533","LAUNCH_DATE":"2021-05-15","SEMIMAJOR_AXIS":"6925.361","TLE_LINE1":"1 48556U 21041D   23055.78136847  .00017443  00000-0  11871-2 0  9994","PERIOD":"95.592","BSTAR":"0.00118710000000","TLE_LINE2":"2 48556  53.0533  79.7039 0001535  87.8415 272.2750 15.06396037 97923","OBJECT_NAME":"STARLINK-2151","GP_ID":"226776477","ECCENTRICITY":"0.00015350","RA_OF_ASC_NODE":"79.7039","FILE":"3835059","ARG_OF_PERICENTER":"87.8415","ELEMENT_SET_NO":"999","SITE":"AFETR","EPOCH":"2023-02-24T18:45:10.235808","COUNTRY_CODE":"US","REF_FRAME":"TEME","MEAN_MOTION_DDOT":"0.0000000000000","TIME_SYSTEM":"UTC","MEAN_ANOMALY":"272.2750","OBJECT_TYPE":"PAYLOAD","CENTER_NAME":"EARTH","OBJECT_ID":"2021-041D"},{"NORAD_CAT_ID":"48557","CLASSIFICATION_TYPE":"U","DECAY_DATE":null,"MEAN_MOTION":"15.06405427","MEAN_MOTION_DOT":"0.00011061","LAUNCH_DATE":"2021-05-15","PERIAPSIS":"546.088","INCLINATION":"53.0566","RCS_SIZE":"LARGE","MEAN_ELEMENT_THEORY":"SGP4","REV_AT_EPOCH":"9802","EPHEMERIS_TYPE":"0","APOAPSIS":"548.306","TLE_LINE2":"2 48557  53.0566  70.8676 0001601  97.8994 262.2177 15.06405427 98024","BSTAR":"0.00076017000000","TLE_LINE1":"1 48557U 21041E   23055.52059374  .00011061  00000-0  76017-3 0  9990","SEMIMAJOR_AXIS":"6925.332","PERIOD":"95.592","FILE":"3832867","ARG_OF_PERICENTER":"97.8994","ELEMENT_SET_NO":"999","ECCENTRICITY":"0.00016010","GP_ID":"226704313","OBJECT_NAME":"STARLINK-2155","RA_OF_ASC_NODE":"70.8676","COUNTRY_CODE":"US","EPOCH":"2023-02-24T12:29:39.299136","SITE":"AFETR","REF_FRAME":"TEME","MEAN_MOTION_DDOT":"0.0000000000000","TIME_SYSTEM":"UTC","MEAN_ANOMALY":"262.2177","OBJECT_TYPE":"PAYLOAD","CENTER_NAME":"EARTH","OBJECT_ID":"2021-041E"},{"DECAY_DATE":null,"CLASSIFICATION_TYPE":"U","NORAD_CAT_ID":"48558","MEAN_ELEMENT_THEORY":"SGP4","RCS_SIZE":"LARGE","APOAPSIS":"548.303","EPHEMERIS_TYPE":"0","REV_AT_EPOCH":"9716","MEAN_MOTION_DOT":"0.00014319","MEAN_MOTION":"15.06394032","PERIAPSIS":"546.160","INCLINATION":"53.0537","LAUNCH_DATE":"2021-05-15","SEMIMAJOR_AXIS":"6925.367","TLE_LINE1":"1 48558U 21041F   23055.51691247  .00014319  00000-0  97836-3 0  9992","PERIOD":"95.593","TLE_LINE2":"2 48558  53.0537  70.8913 0001547  95.8899 264.2266 15.06394032 97162","BSTAR":"0.00097836000000","OBJECT_NAME":"STARLINK-2166","GP_ID":"226704064","ECCENTRICITY":"0.00015470","RA_OF_ASC_NODE":"70.8913","FILE":"3832867","ELEMENT_SET_NO":"999","ARG_OF_PERICENTER":"95.8899","SITE":"AFETR","EPOCH":"2023-02-24T12:24:21.237408","COUNTRY_CODE":"US","REF_FRAME":"TEME","MEAN_MOTION_DDOT":"0.0000000000000","TIME_SYSTEM":"UTC","MEAN_ANOMALY":"264.2266","OBJECT_TYPE":"PAYLOAD","CENTER_NAME":"EARTH","OBJECT_ID":"2021-041F"},{"REF_FRAME":"TEME","MEAN_MOTION_DDOT":"0.0000000000000","TIME_SYSTEM":"UTC","SITE":"AFETR","EPOCH":"2023-02-24T18:02:40.355808","COUNTRY_CODE":"US","CENTER_NAME":"EARTH","OBJECT_ID":"2021-041G","MEAN_ANOMALY":"265.7212","OBJECT_TYPE":"PAYLOAD","RCS_SIZE":"LARGE","MEAN_ELEMENT_THEORY":"SGP4","APOAPSIS":"548.040","EPHEMERIS_TYPE":"0","REV_AT_EPOCH":"9805","MEAN_MOTION_DOT":"-0.00000038","MEAN_MOTION":"15.06398452","PERIAPSIS":"546.396","INCLINATION":"53.0536","LAUNCH_DATE":"2021-05-15","DECAY_DATE":null,"CLASSIFICATION_TYPE":"U","NORAD_CAT_ID":"48559","OBJECT_NAME":"STARLINK-2167","GP_ID":"226776227","ECCENTRICITY":"0.00011870","RA_OF_ASC_NODE":"69.8386","FILE":"3835059","ARG_OF_PERICENTER":"94.3913","ELEMENT_SET_NO":"999","SEMIMAJOR_AXIS":"6925.353","TLE_LINE1":"1 48559U 21041G   23055.75185597 -.00000038  00000-0  16319-4 0  9997","PERIOD":"95.592","TLE_LINE2":"2 48559  53.0536  69.8386 0001187  94.3913 265.7212 15.06398452 98051","BSTAR":"0.00001631900000"},{"SITE":"AFETR","EPOCH":"2023-02-24T10:26:18.050496","COUNTRY_CODE":"US","TIME_SYSTEM":"UTC","MEAN_MOTION_DDOT":"0.0000000000000","REF_FRAME":"TEME","OBJECT_TYPE":"PAYLOAD","MEAN_ANOMALY":"263.8556","OBJECT_ID":"2021-041J","CENTER_NAME":"EARTH","DECAY_DATE":null,"CLASSIFICATION_TYPE":"U","NORAD_CAT_ID":"48561","APOAPSIS":"548.254","REV_AT_EPOCH":"9843","EPHEMERIS_TYPE":"0","MEAN_ELEMENT_THEORY":"SGP4","RCS_SIZE":"LARGE","PERIAPSIS":"546.132","INCLINATION":"53.0560","LAUNCH_DATE":"2021-05-15","MEAN_MOTION_DOT":"0.00011356","MEAN_MOTION":"15.06406806","PERIOD":"95.592","SEMIMAJOR_AXIS":"6925.328","TLE_LINE1":"1 48561U 21041J   23055.43493114  .00011356  00000-0  77988-3 0  9994","TLE_LINE2":"2 48561  53.0560  41.5327 0001532  96.2608 263.8556 15.06406806 98434","BSTAR":"0.00077988000000","RA_OF_ASC_NODE":"41.5327","OBJECT_NAME":"STARLINK-2186","ECCENTRICITY":"0.00015320","GP_ID":"226705552","ARG_OF_PERICENTER":"96.2608","ELEMENT_SET_NO":"999","FILE":"3832867"},{"ELEMENT_SET_NO":"999","ARG_OF_PERICENTER":"85.8200","FILE":"3835059","RA_OF_ASC_NODE":"69.7945","GP_ID":"226776727","ECCENTRICITY":"0.00021130","OBJECT_NAME":"STARLINK-2187","BSTAR":"0.00069521000000","TLE_LINE2":"2 48562  53.0542  69.7945 0002113  85.8200 274.3030 15.06396697 98060","PERIOD":"95.592","TLE_LINE1":"1 48562U 21041K   23055.76017969  .00010088  00000-0  69521-3 0  9996","SEMIMAJOR_AXIS":"6925.359","LAUNCH_DATE":"2021-05-15","PERIAPSIS":"545.760","INCLINATION":"53.0542","MEAN_MOTION":"15.06396697","MEAN_MOTION_DOT":"0.00010088","REV_AT_EPOCH":"9806","EPHEMERIS_TYPE":"0","APOAPSIS":"548.687","MEAN_ELEMENT_THEORY":"SGP4","RCS_SIZE":"LARGE","NORAD_CAT_ID":"48562","CLASSIFICATION_TYPE":"U","DECAY_DATE":null,"OBJECT_ID":"2021-041K","CENTER_NAME":"EARTH","OBJECT_TYPE":"PAYLOAD","MEAN_ANOMALY":"274.3030","TIME_SYSTEM":"UTC","MEAN_MOTION_DDOT":"0.0000000000000","REF_FRAME":"TEME","COUNTRY_CODE":"US","EPOCH":"2023-02-24T18:14:39.525216","SITE":"AFETR"},{"ELEMENT_SET_NO":"999","ARG_OF_PERICENTER":"96.0236","FILE":"3832867","RA_OF_ASC_NODE":"71.7975","ECCENTRICITY":"0.00018380","GP_ID":"226704564","OBJECT_NAME":"STARLINK-2188","BSTAR":"0.00181450000000","TLE_LINE2":"2 48563  53.0549  71.7975 0001838  96.0236 264.0962 15.06430608 97992","PERIOD":"95.590","TLE_LINE1":"1 48563U 21041L   23055.31421768  .00026871  00000-0  18145-2 0  9996","SEMIMAJOR_AXIS":"6925.255","LAUNCH_DATE":"2021-05-15","PERIAPSIS":"545.847","INCLINATION":"53.0549","MEAN_MOTION":"15.06430608","MEAN_MOTION_DOT":"0.00026871","EPHEMERIS_TYPE":"0","REV_AT_EPOCH":"9799","APOAPSIS":"548.393","RCS_SIZE":"LARGE","MEAN_ELEMENT_THEORY":"SGP4","NORAD_CAT_ID":"48563","CLASSIFICATION_TYPE":"U","DECAY_DATE":null,"OBJECT_ID":"2021-041L","CENTER_NAME":"EARTH","OBJECT_TYPE":"PAYLOAD","MEAN_ANOMALY":"264.0962","TIME_SYSTEM":"UTC","REF_FRAME":"TEME","MEAN_MOTION_DDOT":"0.0000000000000","COUNTRY_CODE":"US","EPOCH":"2023-02-24T07:32:28.407552","SITE":"AFETR"},{"TIME_SYSTEM":"UTC","REF_FRAME":"TEME","MEAN_MOTION_DDOT":"0.0000000000000","SITE":"AFETR","COUNTRY_CODE":"US","EPOCH":"2023-02-24T18:30:34.911360","OBJECT_ID":"2021-041M","CENTER_NAME":"EARTH","OBJECT_TYPE":"PAYLOAD","MEAN_ANOMALY":"241.8097","REV_AT_EPOCH":"9806","EPHEMERIS_TYPE":"0","APOAPSIS":"548.440","MEAN_ELEMENT_THEORY":"SGP4","RCS_SIZE":"LARGE","LAUNCH_DATE":"2021-05-15","INCLINATION":"53.0531","PERIAPSIS":"546.011","MEAN_MOTION":"15.06396083","MEAN_MOTION_DOT":"0.00010214","DECAY_DATE":null,"NORAD_CAT_ID":"48564","CLASSIFICATION_TYPE":"U","RA_OF_ASC_NODE":"69.7475","GP_ID":"226775728","ECCENTRICITY":"0.00017540","OBJECT_NAME":"STARLINK-2190","ELEMENT_SET_NO":"999","ARG_OF_PERICENTER":"118.3069","FILE":"3835059","PERIOD":"95.592","TLE_LINE1":"1 48564U 21041M   23055.77123740  .00010214  00000-0  70365-3 0  9993","SEMIMAJOR_AXIS":"6925.361","BSTAR":"0.00070365000000","TLE_LINE2":"2 48564  53.0531  69.7475 0001754 118.3069 241.8097 15.06396083 98064"},{"DECAY_DATE":null,"CLASSIFICATION_TYPE":"U","NORAD_CAT_ID":"48565","RCS_SIZE":"LARGE","MEAN_ELEMENT_THEORY":"SGP4","APOAPSIS":"548.187","EPHEMERIS_TYPE":"0","REV_AT_EPOCH":"9806","MEAN_MOTION_DOT":"0.00001496","MEAN_MOTION":"15.06351173","PERIAPSIS":"546.540","INCLINATION":"53.0523","LAUNCH_DATE":"2021-05-15","SEMIMAJOR_AXIS":"6925.498","TLE_LINE1":"1 48565U 21041N   23055.76662443  .00001496  00000-0  11946-3 0  9993","PERIOD":"95.595","TLE_LINE2":"2 48565  53.0523  69.7566 0001189 108.2538 251.8581 15.06351173 98068","BSTAR":"0.00011946000000","OBJECT_NAME":"STARLINK-2191","ECCENTRICITY":"0.00011890","GP_ID":"226776478","RA_OF_ASC_NODE":"69.7566","FILE":"3835059","ARG_OF_PERICENTER":"108.2538","ELEMENT_SET_NO":"999","SITE":"AFETR","EPOCH":"2023-02-24T18:23:56.350752","COUNTRY_CODE":"US","REF_FRAME":"TEME","MEAN_MOTION_DDOT":"0.0000000000000","TIME_SYSTEM":"UTC","MEAN_ANOMALY":"251.8581","OBJECT_TYPE":"PAYLOAD","CENTER_NAME":"EARTH","OBJECT_ID":"2021-041N"},{"CENTER_NAME":"EARTH","OBJECT_ID":"2021-041P","MEAN_ANOMALY":"273.4723","OBJECT_TYPE":"PAYLOAD","MEAN_MOTION_DDOT":"0.0000000000000","REF_FRAME":"TEME","TIME_SYSTEM":"UTC","SITE":"AFETR","COUNTRY_CODE":"US","EPOCH":"2023-02-24T18:55:46.983936","GP_ID":"226777227","ECCENTRICITY":"0.00016750","OBJECT_NAME":"STARLINK-2214","RA_OF_ASC_NODE":"79.6375","FILE":"3835059","ARG_OF_PERICENTER":"86.6457","ELEMENT_SET_NO":"999","TLE_LINE1":"1 48566U 21041P   23055.78873824  .00018873  00000-0  12825-2 0  9996","SEMIMAJOR_AXIS":"6925.349","PERIOD":"95.592","TLE_LINE2":"2 48566  53.0526  79.6375 0001675  86.6457 273.4723 15.06399709 97928","BSTAR":"0.00128250000000","MEAN_ELEMENT_THEORY":"SGP4","RCS_SIZE":"LARGE","REV_AT_EPOCH":"9792","EPHEMERIS_TYPE":"0","APOAPSIS":"548.374","MEAN_MOTION":"15.06399709","MEAN_MOTION_DOT":"0.00018873","LAUNCH_DATE":"2021-05-15","PERIAPSIS":"546.054","INCLINATION":"53.0526","DECAY_DATE":null,"NORAD_CAT_ID":"48566","CLASSIFICATION_TYPE":"U"}];
